<?xml version="1.0" encoding="UTF-8"?>
<ndm xmlns:xsi="http://www.w3.org/2001/XMLSchema-instance" xsi:noNamespaceSchemaLocation="https://sanaregistry.org/r/ndmxml_unqualified/ndmxml-2.0.0-master-2.0.xsd">
<omm id="CCSDS_OMM_VERS" version="2.0">
<header><CREATION_DATE/><ORIGINATOR/></header><body><segment><metadata><OBJECT_NAME>ORBCOMM FM05</OBJECT_NAME><OBJECT_ID>1997-084F</OBJECT_ID><CENTER_NAME>EARTH</CENTER_NAME><REF_FRAME>TEME</REF_FRAME><TIME_SYSTEM>UTC</TIME_SYSTEM><MEAN_ELEMENT_THEORY>SGP4</MEAN_ELEMENT_THEORY></metadata><data><meanElements><EPOCH>2024-12-13T16:56:00.933504</EPOCH><MEAN_MOTION>14.44677108</MEAN_MOTION><ECCENTRICITY>.0001042</ECCENTRICITY><INCLINATION>45.0125</INCLINATION><RA_OF_ASC_NODE>177.8458</RA_OF_ASC_NODE><ARG_OF_PERICENTER>30.8766</ARG_OF_PERICENTER><MEAN_ANOMALY>329.2146</MEAN_ANOMALY></meanElements><tleParameters><EPHEMERIS_TYPE>0</EPHEMERIS_TYPE><CLASSIFICATION_TYPE>U</CLASSIFICATION_TYPE><NORAD_CAT_ID>25117</NORAD_CAT_ID><ELEMENT_SET_NO>999</ELEMENT_SET_NO><REV_AT_EPOCH>41471</REV_AT_EPOCH><BSTAR>.71325E-3</BSTAR><MEAN_MOTION_DOT>.2352E-4</MEAN_MOTION_DOT><MEAN_MOTION_DDOT>0</MEAN_MOTION_DDOT></tleParameters></data></segment></body></omm>
<omm id="CCSDS_OMM_VERS" version="2.0">
<header><CREATION_DATE/><ORIGINATOR/></header><body><segment><metadata><OBJECT_NAME>ORBCOMM FM06</OBJECT_NAME><OBJECT_ID>1997-084G</OBJECT_ID><CENTER_NAME>EARTH</CENTER_NAME><REF_FRAME>TEME</REF_FRAME><TIME_SYSTEM>UTC</TIME_SYSTEM><MEAN_ELEMENT_THEORY>SGP4</MEAN_ELEMENT_THEORY></metadata><data><meanElements><EPOCH>2024-12-13T18:56:30.005952</EPOCH><MEAN_MOTION>14.44862723</MEAN_MOTION><ECCENTRICITY>.000061</ECCENTRICITY><INCLINATION>45.0118</INCLINATION><RA_OF_ASC_NODE>177.4155</RA_OF_ASC_NODE><ARG_OF_PERICENTER>98.6260</ARG_OF_PERICENTER><MEAN_ANOMALY>276.2688</MEAN_ANOMALY></meanElements><tleParameters><EPHEMERIS_TYPE>0</EPHEMERIS_TYPE><CLASSIFICATION_TYPE>U</CLASSIFICATION_TYPE><NORAD_CAT_ID>25118</NORAD_CAT_ID><ELEMENT_SET_NO>999</ELEMENT_SET_NO><REV_AT_EPOCH>41472</REV_AT_EPOCH><BSTAR>.68721E-3</BSTAR><MEAN_MOTION_DOT>.227E-4</MEAN_MOTION_DOT><MEAN_MOTION_DDOT>0</MEAN_MOTION_DDOT></tleParameters></data></segment></body></omm>
<omm id="CCSDS_OMM_VERS" version="2.0">
<header><CREATION_DATE/><ORIGINATOR/></header><body><segment><metadata><OBJECT_NAME>ORBCOMM FM07</OBJECT_NAME><OBJECT_ID>1997-084H</OBJECT_ID><CENTER_NAME>EARTH</CENTER_NAME><REF_FRAME>TEME</REF_FRAME><TIME_SYSTEM>UTC</TIME_SYSTEM><MEAN_ELEMENT_THEORY>SGP4</MEAN_ELEMENT_THEORY></metadata><data><meanElements><EPOCH>2024-12-13T19:02:38.163264</EPOCH><MEAN_MOTION>14.44731278</MEAN_MOTION><ECCENTRICITY>.0001607</ECCENTRICITY><INCLINATION>45.0114</INCLINATION><RA_OF_ASC_NODE>178.0999</RA_OF_ASC_NODE><ARG_OF_PERICENTER>7.0037</ARG_OF_PERICENTER><MEAN_ANOMALY>353.0836</MEAN_ANOMALY></meanElements><tleParameters><EPHEMERIS_TYPE>0</EPHEMERIS_TYPE><CLASSIFICATION_TYPE>U</CLASSIFICATION_TYPE><NORAD_CAT_ID>25119</NORAD_CAT_ID><ELEMENT_SET_NO>999</ELEMENT_SET_NO><REV_AT_EPOCH>41471</REV_AT_EPOCH><BSTAR>.74212E-3</BSTAR><MEAN_MOTION_DOT>.2456E-4</MEAN_MOTION_DOT><MEAN_MOTION_DDOT>0</MEAN_MOTION_DDOT></tleParameters></data></segment></body></omm>
<omm id="CCSDS_OMM_VERS" version="2.0">
<header><CREATION_DATE/><ORIGINATOR/></header><body><segment><metadata><OBJECT_NAME>ORBCOMM FM03</OBJECT_NAME><OBJECT_ID>1998-007B</OBJECT_ID><CENTER_NAME>EARTH</CENTER_NAME><REF_FRAME>TEME</REF_FRAME><TIME_SYSTEM>UTC</TIME_SYSTEM><MEAN_ELEMENT_THEORY>SGP4</MEAN_ELEMENT_THEORY></metadata><data><meanElements><EPOCH>2024-12-14T01:43:29.668224</EPOCH><MEAN_MOTION>14.33583545</MEAN_MOTION><ECCENTRICITY>.0048001</ECCENTRICITY><INCLINATION>107.9669</INCLINATION><RA_OF_ASC_NODE>115.5242</RA_OF_ASC_NODE><ARG_OF_PERICENTER>214.8453</ARG_OF_PERICENTER><MEAN_ANOMALY>144.9540</MEAN_ANOMALY></meanElements><tleParameters><EPHEMERIS_TYPE>0</EPHEMERIS_TYPE><CLASSIFICATION_TYPE>U</CLASSIFICATION_TYPE><NORAD_CAT_ID>25158</NORAD_CAT_ID><ELEMENT_SET_NO>999</ELEMENT_SET_NO><REV_AT_EPOCH>39764</REV_AT_EPOCH><BSTAR>.88265E-3</BSTAR><MEAN_MOTION_DOT>.2349E-4</MEAN_MOTION_DOT><MEAN_MOTION_DDOT>0</MEAN_MOTION_DDOT></tleParameters></data></segment></body></omm>
<omm id="CCSDS_OMM_VERS" version="2.0">
<header><CREATION_DATE/><ORIGINATOR/></header><body><segment><metadata><OBJECT_NAME>ORBCOMM FM04</OBJECT_NAME><OBJECT_ID>1998-007C</OBJECT_ID><CENTER_NAME>EARTH</CENTER_NAME><REF_FRAME>TEME</REF_FRAME><TIME_SYSTEM>UTC</TIME_SYSTEM><MEAN_ELEMENT_THEORY>SGP4</MEAN_ELEMENT_THEORY></metadata><data><meanElements><EPOCH>2024-12-13T14:25:33.977280</EPOCH><MEAN_MOTION>14.33853662</MEAN_MOTION><ECCENTRICITY>.0043598</ECCENTRICITY><INCLINATION>107.9655</INCLINATION><RA_OF_ASC_NODE>117.6496</RA_OF_ASC_NODE><ARG_OF_PERICENTER>213.4559</ARG_OF_PERICENTER><MEAN_ANOMALY>146.3824</MEAN_ANOMALY></meanElements><tleParameters><EPHEMERIS_TYPE>0</EPHEMERIS_TYPE><CLASSIFICATION_TYPE>U</CLASSIFICATION_TYPE><NORAD_CAT_ID>25159</NORAD_CAT_ID><ELEMENT_SET_NO>999</ELEMENT_SET_NO><REV_AT_EPOCH>39772</REV_AT_EPOCH><BSTAR>.89823E-3</BSTAR><MEAN_MOTION_DOT>.24E-4</MEAN_MOTION_DOT><MEAN_MOTION_DDOT>0</MEAN_MOTION_DDOT></tleParameters></data></segment></body></omm>
<omm id="CCSDS_OMM_VERS" version="2.0">
<header><CREATION_DATE/><ORIGINATOR/></header><body><segment><metadata><OBJECT_NAME>ORBCOMM FM17</OBJECT_NAME><OBJECT_ID>1998-046A</OBJECT_ID><CENTER_NAME>EARTH</CENTER_NAME><REF_FRAME>TEME</REF_FRAME><TIME_SYSTEM>UTC</TIME_SYSTEM><MEAN_ELEMENT_THEORY>SGP4</MEAN_ELEMENT_THEORY></metadata><data><meanElements><EPOCH>2024-12-14T04:25:02.259552</EPOCH><MEAN_MOTION>14.34352794</MEAN_MOTION><ECCENTRICITY>.0002627</ECCENTRICITY><INCLINATION>44.9952</INCLINATION><RA_OF_ASC_NODE>50.2829</RA_OF_ASC_NODE><ARG_OF_PERICENTER>310.4759</ARG_OF_PERICENTER><MEAN_ANOMALY>49.5859</MEAN_ANOMALY></meanElements><tleParameters><EPHEMERIS_TYPE>0</EPHEMERIS_TYPE><CLASSIFICATION_TYPE>U</CLASSIFICATION_TYPE><NORAD_CAT_ID>25413</NORAD_CAT_ID><ELEMENT_SET_NO>999</ELEMENT_SET_NO><REV_AT_EPOCH>37677</REV_AT_EPOCH><BSTAR>.58807E-3</BSTAR><MEAN_MOTION_DOT>.1528E-4</MEAN_MOTION_DOT><MEAN_MOTION_DDOT>0</MEAN_MOTION_DDOT></tleParameters></data></segment></body></omm>
<omm id="CCSDS_OMM_VERS" version="2.0">
<header><CREATION_DATE/><ORIGINATOR/></header><body><segment><metadata><OBJECT_NAME>ORBCOMM FM18</OBJECT_NAME><OBJECT_ID>1998-046B</OBJECT_ID><CENTER_NAME>EARTH</CENTER_NAME><REF_FRAME>TEME</REF_FRAME><TIME_SYSTEM>UTC</TIME_SYSTEM><MEAN_ELEMENT_THEORY>SGP4</MEAN_ELEMENT_THEORY></metadata><data><meanElements><EPOCH>2024-12-14T03:34:42.303072</EPOCH><MEAN_MOTION>14.37529149</MEAN_MOTION><ECCENTRICITY>.0003666</ECCENTRICITY><INCLINATION>44.9938</INCLINATION><RA_OF_ASC_NODE>332.6085</RA_OF_ASC_NODE><ARG_OF_PERICENTER>39.3632</ARG_OF_PERICENTER><MEAN_ANOMALY>320.7482</MEAN_ANOMALY></meanElements><tleParameters><EPHEMERIS_TYPE>0</EPHEMERIS_TYPE><CLASSIFICATION_TYPE>U</CLASSIFICATION_TYPE><NORAD_CAT_ID>25414</NORAD_CAT_ID><ELEMENT_SET_NO>999</ELEMENT_SET_NO><REV_AT_EPOCH>37778</REV_AT_EPOCH><BSTAR>.87871E-3</BSTAR><MEAN_MOTION_DOT>.2516E-4</MEAN_MOTION_DOT><MEAN_MOTION_DDOT>0</MEAN_MOTION_DDOT></tleParameters></data></segment></body></omm>
<omm id="CCSDS_OMM_VERS" version="2.0">
<header><CREATION_DATE/><ORIGINATOR/></header><body><segment><metadata><OBJECT_NAME>ORBCOMM FM19</OBJECT_NAME><OBJECT_ID>1998-046C</OBJECT_ID><CENTER_NAME>EARTH</CENTER_NAME><REF_FRAME>TEME</REF_FRAME><TIME_SYSTEM>UTC</TIME_SYSTEM><MEAN_ELEMENT_THEORY>SGP4</MEAN_ELEMENT_THEORY></metadata><data><meanElements><EPOCH>2024-12-14T03:37:40.973088</EPOCH><MEAN_MOTION>14.37349606</MEAN_MOTION><ECCENTRICITY>.0003021</ECCENTRICITY><INCLINATION>44.9949</INCLINATION><RA_OF_ASC_NODE>334.3109</RA_OF_ASC_NODE><ARG_OF_PERICENTER>19.0028</ARG_OF_PERICENTER><MEAN_ANOMALY>34.5129</MEAN_ANOMALY></meanElements><tleParameters><EPHEMERIS_TYPE>0</EPHEMERIS_TYPE><CLASSIFICATION_TYPE>U</CLASSIFICATION_TYPE><NORAD_CAT_ID>25415</NORAD_CAT_ID><ELEMENT_SET_NO>999</ELEMENT_SET_NO><REV_AT_EPOCH>37777</REV_AT_EPOCH><BSTAR>.73335E-3</BSTAR><MEAN_MOTION_DOT>.2068E-4</MEAN_MOTION_DOT><MEAN_MOTION_DDOT>0</MEAN_MOTION_DDOT></tleParameters></data></segment></body></omm>

</ndm>
