ORBCOMM FM05            
1 25117U 97084F   24348.70556636  .00002352  00000+0  71325-3 0  9995
2 25117  45.0125 177.8458 0001042  30.8766 329.2146 14.44677108414718
ORBCOMM FM06            
1 25118U 97084G   24348.78923618  .00002270  00000+0  68721-3 0  9997
2 25118  45.0118 177.4155 0000610  98.6260 276.2688 14.44862723414724
ORBCOMM FM07            
1 25119U 97084H   24348.79349726  .00002456  00000+0  74212-3 0  9999
2 25119  45.0114 178.0999 0001607   7.0037 353.0836 14.44731278414715
ORBCOMM FM03            
1 25158U 98007B   24349.07187116  .00002349  00000+0  88265-3 0  9997
2 25158 107.9669 115.5242 0048001 214.8453 144.9540 14.33583545397648
ORBCOMM FM04            
1 25159U 98007C   24348.60108770  .00002400  00000+0  89823-3 0  9994
2 25159 107.9655 117.6496 0043598 213.4559 146.3824 14.33853662397726
ORBCOMM FM17            
1 25413U 98046A   24349.18405393  .00001528  00000+0  58807-3 0  9993
2 25413  44.9952  50.2829 0002627 310.4759  49.5859 14.34352794376774
ORBCOMM FM18            
1 25414U 98046B   24349.14910073  .00002516  00000+0  87871-3 0  9997
2 25414  44.9938 332.6085 0003666  39.3632 320.7482 14.37529149377782
ORBCOMM FM19            
1 25415U 98046C   24349.15116867  .00002068  00000+0  73335-3 0  9990
2 25415  44.9949 334.3109 0003021  19.0028  34.5129 14.37349606377775
